STARLINK-37359          
1 69188U 26114G   26164.22357673  .00117978  00000+0  67446-3 0  9992
2 69188  53.1592 222.2206 0001442  66.9132 293.2042 15.78038174  4148
STARLINK-37440          
1 69189U 26114H   26164.30558566  .00236542  00000+0  11692-2 0  9996
2 69189  53.1586 221.2876 0001207  85.5678 274.5483 15.80876610  4166
STARLINK-37282          
1 69190U 26114J   26164.21712299  .00128622  00000+0  73401-3 0  9999
2 69190  53.1594 222.1766 0001333  81.8837 278.2336 15.78039633  4140
STARLINK-37422          
1 69191U 26114K   26163.89031277  .00305735  00000+0  14911-2 0  9995
2 69191  53.1582 223.6899 0001914  54.0890 306.0310 15.80978429  4091
STARLINK-37424          
1 69192U 26114L   26164.21723229  .00234319  00000+0  13154-2 0  9995
2 69192  53.1589 222.1782 0001473  54.8435 305.2725 15.78076845  4142
STARLINK-36666          
1 69193U 26114M   26163.89053221  .00177191  00000+0  88051-3 0  9990
2 69193  53.1581 223.6918 0001089  97.7133 262.4014 15.80933805  4096
STARLINK-37355          
1 69194U 26114N   26164.26909913  .00254507  00000+0  12502-2 0  9995
2 69194  53.1579 221.7874 0001659 119.4624 240.6565 15.80961693  4156
STARLINK-37166          
1 69195U 26114P   26164.26760654  .00445750  00000+0  21365-2 0  9992
2 69195  53.1577 221.7749 0001719 122.1537 237.9653 15.80984135  4150
STARLINK-36933          
1 69196U 26114Q   26164.26835807  .00219947  00000+0  10879-2 0  9991
2 69196  53.1581 221.7813 0001481  95.9320 264.1872 15.80910297  4154
STARLINK-37419          
1 69197U 26114R   26164.20363067  .00463693  00000+0  22224-2 0  9996
2 69197  53.1577 222.0875 0001529 174.7282 185.3757 15.80937192  4146
STARLINK-37321          
1 69198U 26114S   26164.26610480  .00203984  00000+0  10109-2 0  9991
2 69198  53.1580 221.7665 0001365 102.6036 257.5139 15.80913131  4153
STARLINK-37406          
1 69199U 26114T   26163.88603434  .00217358  00000+0  10738-2 0  9998
2 69199  53.1579 223.6612 0001873  59.9654 300.1555 15.80943945  4095
STARLINK-37761          
1 69200U 26114U   26164.20138694  .00152819  00000+0  76396-3 0  9992
2 69200  53.1579 222.0724 0001296  43.3911 316.7214 15.80878866  4147
STARLINK-37754          
1 69201U 26114V   26164.26366450  .00215132  00000+0  10652-2 0  9992
2 69201  53.1575 221.7484 0001295  67.8353 292.2807 15.80900398  4156
STARLINK-37649          
1 69202U 26114W   26163.63089999  .00237919  00000+0  11702-2 0  9997
2 69202  53.1582 224.9135 0001172  98.6377 261.4779 15.80981638  4056
STARLINK-37604          
1 69203U 26114X   26164.26235987  .00231843  00000+0  11456-2 0  9994
2 69203  53.1579 221.7402 0001850  50.2973 309.8213 15.80897969  4158
STARLINK-37669          
1 69204U 26114Y   26164.26160185  .00292696  00000+0  14311-2 0  9998
2 69204  53.1576 221.7350 0001927 118.0513 242.0705 15.80959666  4153
STARLINK-37691          
1 69205U 26114Z   26164.26908312  .00160532  00000+0  91023-3 0  9990
2 69205  53.1584 221.7841 0001351  86.3258 273.7918 15.78076765  4156
STARLINK-37671          
1 69206U 26114AA  26164.25002315 -.00049099  00000+0 -28013-3 0  9993
2 69206  53.1588 221.7944 0001449  58.5764 234.7338 15.78086810  4184
STARLINK-37647          
1 69207U 26114AB  26164.26085493  .00182276  00000+0  90684-3 0  9999
2 69207  53.1579 221.7293 0001130 104.5586 255.5563 15.80893055  4151
STARLINK-37562          
1 69208U 26114AC  26164.25002315  .00021914  00000+0  12975-3 0  9999
2 69208  53.1588 221.8178 0000924  95.2899 186.4232 15.78051363  4181
STARLINK-37682          
1 69209U 26114AD  26164.25785380  .00208909  00000+0  10356-2 0  9991
2 69209  53.1579 221.7078 0001402 130.6712 229.4433 15.80893877  4155
STARLINK-37402          
1 69210U 26114AE  26164.25710445  .00189484  00000+0  94162-3 0  9997
2 69210  53.1577 221.7034 0001164  99.6337 260.4817 15.80896515  4152
STARLINK-37613          
1 69211U 26115A   26164.25002315  .00000933  00000+0  18814-4 0  9991
2 69211  97.2836 181.3259 0001202  75.0334 241.7959 15.49181293  4062
STARLINK-37713          
1 69212U 26115B   26164.25002315 -.02599966  00000+0 -36838-1 0  9998
2 69212  97.2835 181.4340 0001516  91.0376 122.0475 15.60282252  4060
STARLINK-37716          
1 69213U 26115C   26164.25002315 -.02621989  00000+0 -30623-1 0  9996
2 69213  97.2833 181.4719 0001369 102.6410 197.5270 15.65231166  4066
STARLINK-37620          
1 69214U 26115D   26164.25002315 -.00001929  00000+0 -33823-4 0  9999
2 69214  97.2838 181.2913 0000640  40.8039 196.5831 15.49183679  4066
STARLINK-37700          
1 69215U 26115E   26164.31004479  .00065575  00000+0  11969-2 0  9990
2 69215  97.2837 181.2634 0001417  92.2954 267.8459 15.49199346  4051
STARLINK-37766          
1 69216U 26115F   26164.25002315 -.02597212  00000+0 -25251-1 0  9991
2 69216  97.2836 181.4915 0001211  96.2938 251.5913 15.69678978  4064
STARLINK-37763          
1 69217U 26115G   26164.25002315 -.02633384  00000+0 -31880-1 0  9998
2 69217  97.2838 181.4665 0001522 106.9280 183.2464 15.64349548  4068
