OBJECT_NAME,OBJECT_ID,EPOCH,MEAN_MOTION,ECCENTRICITY,INCLINATION,RA_OF_ASC_NODE,ARG_OF_PERICENTER,MEAN_ANOMALY,EPHEMERIS_TYPE,CLASSIFICATION_TYPE,NORAD_CAT_ID,ELEMENT_SET_NO,REV_AT_EPOCH,BSTAR,MEAN_MOTION_DOT,MEAN_MOTION_DDOT
STARLINK-37359,2026-114G,2026-06-13T05:21:57.029472,15.78038174,.00014427,53.1592,222.2206,66.9132,293.2042,0,U,69188,999,414,.67446309E-3,.117978E-2,0
STARLINK-37440,2026-114H,2026-06-13T07:20:02.601024,15.80876610,.00012073,53.1586,221.2876,85.5678,274.5483,0,U,69189,999,416,.11692404E-2,.236542E-2,0
STARLINK-37282,2026-114J,2026-06-13T05:12:39.426336,15.78039633,.00013337,53.1594,222.1766,81.8837,278.2336,0,U,69190,999,414,.73400884E-3,.128622E-2,0
STARLINK-37422,2026-114K,2026-06-12T21:22:03.023328,15.80978429,.00019141,53.1582,223.6899,54.0890,306.0310,0,U,69191,999,409,.14910948E-2,.305735E-2,0
STARLINK-37424,2026-114L,2026-06-13T05:12:48.869856,15.78076845,.00014731,53.1589,222.1782,54.8435,305.2725,0,U,69192,999,414,.13153788E-2,.234319E-2,0
STARLINK-36666,2026-114M,2026-06-12T21:22:21.982944,15.80933805,.00010898,53.1581,223.6918,97.7133,262.4014,0,U,69193,999,409,.88050696E-3,.177191E-2,0
STARLINK-37355,2026-114N,2026-06-13T06:27:30.164832,15.80961693,.00016592,53.1579,221.7874,119.4624,240.6565,0,U,69194,999,415,.1250243E-2,.254507E-2,0
STARLINK-37166,2026-114P,2026-06-13T06:25:21.205056,15.80984135,.00017194,53.1577,221.7749,122.1537,237.9653,0,U,69195,999,415,.21364855E-2,.44575E-2,0
STARLINK-36933,2026-114Q,2026-06-13T06:26:26.137248,15.80910297,.00014818,53.1581,221.7813,95.9320,264.1872,0,U,69196,999,415,.10878745E-2,.219947E-2,0
STARLINK-37419,2026-114R,2026-06-13T04:53:13.689888,15.80937192,.00015299,53.1577,222.0875,174.7282,185.3757,0,U,69197,999,414,.22224328E-2,.463693E-2,0
STARLINK-37321,2026-114S,2026-06-13T06:23:11.454720,15.80913131,.00013651,53.1580,221.7665,102.6036,257.5139,0,U,69198,999,415,.10109218E-2,.203984E-2,0
STARLINK-37406,2026-114T,2026-06-12T21:15:53.366976,15.80943945,.00018735,53.1579,223.6612,59.9654,300.1555,0,U,69199,999,409,.10737585E-2,.217358E-2,0
STARLINK-37761,2026-114U,2026-06-13T04:49:59.831616,15.80878866,.0001296,53.1579,222.0724,43.3911,316.7214,0,U,69200,999,414,.76395843E-3,.152819E-2,0
STARLINK-37754,2026-114V,2026-06-13T06:19:40.612800,15.80900398,.00012953,53.1575,221.7484,67.8353,292.2807,0,U,69201,999,415,.10652205E-2,.215132E-2,0
STARLINK-37649,2026-114W,2026-06-12T15:08:29.759136,15.80981638,.00011723,53.1582,224.9135,98.6377,261.4779,0,U,69202,999,405,.1170173E-2,.237919E-2,0
STARLINK-37604,2026-114X,2026-06-13T06:17:47.892768,15.80897969,.00018501,53.1579,221.7402,50.2973,309.8213,0,U,69203,999,415,.1145574E-2,.231843E-2,0
STARLINK-37669,2026-114Y,2026-06-13T06:16:42.399840,15.80959666,.00019278,53.1576,221.7350,118.0513,242.0705,0,U,69204,999,415,.14310575E-2,.292696E-2,0
STARLINK-37691,2026-114Z,2026-06-13T06:27:28.781568,15.78076765,.00013515,53.1584,221.7841,86.3258,273.7918,0,U,69205,999,415,.91022651E-3,.160532E-2,0
STARLINK-37671,2026-114AA,2026-06-13T06:00:02.000160,15.78086810,.00014494,53.1588,221.7944,58.5764,234.7338,0,U,69206,999,418,-.2801288E-3,-.49099E-3,0
STARLINK-37647,2026-114AB,2026-06-13T06:15:37.865952,15.80893055,.00011303,53.1579,221.7293,104.5586,255.5563,0,U,69207,999,415,.90683559E-3,.182276E-2,0
STARLINK-37562,2026-114AC,2026-06-13T06:00:02.000160,15.78051363,.00009241,53.1588,221.8178,95.2899,186.4232,0,U,69208,999,418,.12975076E-3,.21914E-3,0
STARLINK-37682,2026-114AD,2026-06-13T06:11:18.568320,15.80893877,.00014025,53.1579,221.7078,130.6712,229.4433,0,U,69209,999,415,.10355658E-2,.208909E-2,0
STARLINK-37402,2026-114AE,2026-06-13T06:10:13.824480,15.80896515,.00011644,53.1577,221.7034,99.6337,260.4817,0,U,69210,999,415,.94161826E-3,.189484E-2,0
STARLINK-37613,2026-115A,2026-06-13T06:00:02.000160,15.49181293,.00012026,97.2836,181.3259,75.0334,241.7959,0,U,69211,999,406,.18814334E-4,.933E-5,0
STARLINK-37713,2026-115B,2026-06-13T06:00:02.000160,15.60282252,.00015169,97.2835,181.4340,91.0376,122.0475,0,U,69212,999,406,-.36837853E-1,-.2599966E-1,0
STARLINK-37716,2026-115C,2026-06-13T06:00:02.000160,15.65231166,.00013696,97.2833,181.4719,102.6410,197.5270,0,U,69213,999,406,-.30622809E-1,-.2621989E-1,0
STARLINK-37620,2026-115D,2026-06-13T06:00:02.000160,15.49183679,.000064,97.2838,181.2913,40.8039,196.5831,0,U,69214,999,406,-.33822786E-4,-.1929E-4,0
STARLINK-37700,2026-115E,2026-06-13T07:26:27.869856,15.49199346,.0001417,97.2837,181.2634,92.2954,267.8459,0,U,69215,999,405,.11969239E-2,.65575E-3,0
STARLINK-37766,2026-115F,2026-06-13T06:00:02.000160,15.69678978,.00012116,97.2836,181.4915,96.2938,251.5913,0,U,69216,999,406,-.25251291E-1,-.2597212E-1,0
STARLINK-37763,2026-115G,2026-06-13T06:00:02.000160,15.64349548,.00015222,97.2838,181.4665,106.9280,183.2464,0,U,69217,999,406,-.31879549E-1,-.2633384E-1,0
